{
"type": "FeatureCollection",
"crs": { "type": "name", "properties": { "name": "urn:ogc:def:crs:OGC:1.3:CRS84" } },
                                                                                
"features": [
{ "type": "Feature", "properties": { "Brewery": "Avondale Brewing Co", "Address": "201 41st St S", "City": "Birmingham", "State": "AL", "Zip": "35222", "URL": "www.avondalebrewing.com" }, "geometry": { "type": "Point", "coordinates": [ -86.774171, 33.524545 ] } },
{ "type": "Feature", "properties": { "Brewery": "Back Forty Beer Co", "Address": "200 N 6th St", "City": "Gadsen", "State": "AL", "Zip": "35901", "URL": "www.backfortybeer.com" }, "geometry": { "type": "Point", "coordinates": [ -86.005732, 34.016034 ] } },
{ "type": "Feature", "properties": { "Brewery": "Below the Radar Brewing Co", "Address": "220 Holmes Ave NE", "City": "Huntsville", "State": "AL", "Zip": "35801", "URL": "www.btrbrew.com" }, "geometry": { "type": "Point", "coordinates": [ -86.585511, 34.732841 ] } },
{ "type": "Feature", "properties": { "Brewery": "Black Warrior Brewing Co.", "Address": "2216 University Blvd", "City": "Tuscaloosa", "State": "AL", "Zip": "35401", "URL": "www.blackwarriorbrewing.com" }, "geometry": { "type": "Point", "coordinates": [ -87.566375, 33.210775 ] } },
{ "type": "Feature", "properties": { "Brewery": "Blue Moose Cafe & Brew Pub", "Address": "216 1st Avenue SE", "City": "Cullman", "State": "AL", "Zip": "35055", "URL": "https:\/\/www.facebook.com\/pages\/Blue-Moose-Cafe-Brew-Pub\/484013234996544" }, "geometry": { "type": "Point", "coordinates": [ -86.841895, 34.176298 ] } },
{ "type": "Feature", "properties": { "Brewery": "Blue Pants Brewery", "Address": "500 Lanier Rd", "City": "Madison", "State": "AL", "Zip": "35758", "URL": "www.bluepantsbrew.com" }, "geometry": { "type": "Point", "coordinates": [ -86.738995, 34.685157 ] } },
{ "type": "Feature", "properties": { "Brewery": "Cahaba Brewing Co", "Address": "2616 3rd Ave S", "City": "Birmingham", "State": "AL", "Zip": "35233", "URL": "www.cahababrewing.com" }, "geometry": { "type": "Point", "coordinates": [ -86.793822, 33.514521 ] } },
{ "type": "Feature", "properties": { "Brewery": "Chattahoochee Brewing Co", "Address": "505 13th St", "City": "Phenix City", "State": "AL", "Zip": "36867", "URL": "www.chattahoocheebrewingcompany.com" }, "geometry": { "type": "Point", "coordinates": [ -84.999703, 32.470744 ] } },
{ "type": "Feature", "properties": { "Brewery": "Cheaha Brewing Co", "Address": "1208 Walnut Ave", "City": "Anniston", "State": "AL", "Zip": "36201", "URL": "www.cheahabrewingcompany.com" }, "geometry": { "type": "Point", "coordinates": [ -85.833799, 33.660298 ] } },
{ "type": "Feature", "properties": { "Brewery": "Druid City Brewing", "Address": "607 14th St", "City": "Tuscaloosa", "State": "AL", "Zip": "35401", "URL": "www.druidcitybrewing.com" }, "geometry": { "type": "Point", "coordinates": [ -87.545405, 33.199782 ] } },
{ "type": "Feature", "properties": { "Brewery": "Fairhope Brewing Co", "Address": "914 Nichols Ave", "City": "Fairhope", "State": "AL", "Zip": "36532", "URL": "www.fairhopebrewing.com" }, "geometry": { "type": "Point", "coordinates": [ -87.884942, 30.516139 ] } },
{ "type": "Feature", "properties": { "Brewery": "Folklore Brewing & Meadery, LLC", "Address": "153 Mary Lou Ln", "City": "Dothan", "State": "AL", "Zip": "36301", "URL": "www.folklorebrewing.com" }, "geometry": { "type": "Point", "coordinates": [ -85.395082, 31.148668 ] } },
{ "type": "Feature", "properties": { "Brewery": "Goat Island Brewing", "Address": "1646-A John H Cooper Drive Southeast", "City": "Cullman", "State": "AL", "Zip": "35055", "URL": "http:\/\/www.goatislandbrewing.com\/" }, "geometry": { "type": "Point", "coordinates": [ -86.818329, 34.14128 ] } },
{ "type": "Feature", "properties": { "Brewery": "Good People Brewing Co", "Address": "114 14th St S", "City": "Birmingham", "State": "AL", "Zip": "35233", "URL": "www.goodpeoplebrewing.com" }, "geometry": { "type": "Point", "coordinates": [ -86.812118, 33.507047 ] } },
{ "type": "Feature", "properties": { "Brewery": "Mad Malts Brewing", "Address": "109 Maple Ave NW", "City": "Huntsville", "State": "AL", "Zip": "35801", "URL": "http:\/\/madmaltsbrewing.com\/" }, "geometry": { "type": "Point", "coordinates": [ -86.585251, 34.746316 ] } },
{ "type": "Feature", "properties": { "Brewery": "Main Channel Brewing Company", "Address": "2090 Gunter Avenue", "City": "Guntersville", "State": "AL", "Zip": "35976", "URL": "http:\/\/mainchannelbeer.com\/" }, "geometry": { "type": "Point", "coordinates": [ -86.314158, 34.337382 ] } },
{ "type": "Feature", "properties": { "Brewery": "Old Black Bear Brewing", "Address": "212 Main St", "City": "Madison", "State": "AL", "Zip": "35758", "URL": "www.oldblackbear.com" }, "geometry": { "type": "Point", "coordinates": [ -86.693267, 34.750224 ] } },
{ "type": "Feature", "properties": { "Brewery": "Railyard Brewing Co", "Address": "12 W Jefferson St", "City": "Montgomery", "State": "AL", "Zip": "36104", "URL": "www.railyardbrewingcompany.com" }, "geometry": { "type": "Point", "coordinates": [ -86.309633, 32.381156 ] } },
{ "type": "Feature", "properties": { "Brewery": "Red Clay Brewing Company", "Address": "704 N Railroad Ave", "City": "Opelika", "State": "AL", "Zip": "36801", "URL": "www.redclaybrewingcompany.com" }, "geometry": { "type": "Point", "coordinates": [ -85.378794, 32.649271 ] } },
{ "type": "Feature", "properties": { "Brewery": "Rocket Republic Brewing Company", "Address": "289 Production Ave", "City": "Madison", "State": "AL", "Zip": "35758", "URL": "www.rocketrepublicbrewing.com" }, "geometry": { "type": "Point", "coordinates": [ -86.77401, 34.672779 ] } },
{ "type": "Feature", "properties": { "Brewery": "Salty Nut Brewery", "Address": "4411 Evangel Circle Northwest, Suite A", "City": "Huntsville", "State": "AL", "Zip": "35816", "URL": "www.saltynutbrewery.com" }, "geometry": { "type": "Point", "coordinates": [ -86.639642, 34.736722 ] } },
{ "type": "Feature", "properties": { "Brewery": "Singin' River Brewing Company, LLC", "Address": "526 E College St", "City": "Florence", "State": "AL", "Zip": "35630", "URL": "www.singinriverbrewery.com" }, "geometry": { "type": "Point", "coordinates": [ -87.668968, 34.801656 ] } },
{ "type": "Feature", "properties": { "Brewery": "Straight to Ale", "Address": "3200 Leeman Ferry Rd SW", "City": "Huntsville", "State": "AL", "Zip": "35801", "URL": "www.straighttoale.com" }, "geometry": { "type": "Point", "coordinates": [ -86.593576, 34.694846 ] } },
{ "type": "Feature", "properties": { "Brewery": "The Huntsville Brewery", "Address": "801 Franklin St", "City": "Huntsville", "State": "AL", "Zip": "35081", "URL": "https:\/\/www.facebook.com\/pages\/The-Huntsville-Brewery\/623292181015304?fref=ts" }, "geometry": { "type": "Point", "coordinates": [ -86.578207, 34.722761 ] } },
{ "type": "Feature", "properties": { "Brewery": "Trim Tab Brewing", "Address": "2721 5th Ave S", "City": "Birmingham", "State": "AL", "Zip": "35233", "URL": "www.trimtabbrewing.com" }, "geometry": { "type": "Point", "coordinates": [ -86.790879, 33.512952 ] } },
{ "type": "Feature", "properties": { "Brewery": "Yellowhammer Brewery", "Address": "2406 Clinton Ave W", "City": "Huntsville", "State": "AL", "Zip": "35805", "URL": "www.yellowhammerbrewery.com" }, "geometry": { "type": "Point", "coordinates": [ -86.599191, 34.724626 ] } },
{ "type": "Feature", "properties": { "Brewery": "Green Bus Brewing", "Address": "Green Bus Brewing, 206 Eustis Ave SE", "City": "Huntsville", "State": "AL", "Zip": "35801", "URL": "https:\/\/www.facebook.com\/GreenBusBrewing\/" }, "geometry": { "type": "Point", "coordinates": [ -86.583838, 34.730097 ] } }
]
}
